[{"OBJECT_NAME":"DS-EO","OBJECT_ID":"2022-072A","EPOCH":"2026-03-09T23:09:32.454144","MEAN_MOTION":15.12980389,"ECCENTRICITY":0.00042856,"INCLINATION":9.9929,"RA_OF_ASC_NODE":205.6872,"ARG_OF_PERICENTER":305.4389,"MEAN_ANOMALY":54.5426,"EPHEMERIS_TYPE":0,"CLASSIFICATION_TYPE":"U","NORAD_CAT_ID":52935,"ELEMENT_SET_NO":999,"REV_AT_EPOCH":20345,"BSTAR":0.00030023735,"MEAN_MOTION_DOT":6.277e-5,"MEAN_MOTION_DDOT":0},{"OBJECT_NAME":"CONNECTA IOT-15","OBJECT_ID":"2026-004AR","EPOCH":"2026-03-09T22:41:01.256352","MEAN_MOTION":15.16609971,"ECCENTRICITY":0.00018664,"INCLINATION":97.4573,"RA_OF_ASC_NODE":69.3558,"ARG_OF_PERICENTER":342.2914,"MEAN_ANOMALY":17.8254,"EPHEMERIS_TYPE":0,"CLASSIFICATION_TYPE":"U","NORAD_CAT_ID":67402,"ELEMENT_SET_NO":999,"REV_AT_EPOCH":868,"BSTAR":0.00024313202,"MEAN_MOTION_DOT":4.685e-5,"MEAN_MOTION_DDOT":0}]
